{
  "type": "FeatureCollection",
  "name": "MIDC_Chakan_Phase_2_Road_Segments",
  "crs": {
    "type": "name",
    "properties": {
      "name": "urn:ogc:def:crs:OGC:1.3:CRS84"
    }
  },
  "features": [
    {
      "type": "Feature",
      "properties": {
        "segment_index": 1,
        "name": "Spine Road North (Gate 1 to Weighbridge)",
        "traffic_class": "CRITICAL_HEAVY",
        "traffic_class_weight": 2.5,
        "near_gate_or_weighbridge": true,
        "has_active_dlp": true,
        "length_m": 620.0
      },
      "geometry": {
        "type": "LineString",
        "coordinates": [[73.7810, 18.7510], [73.7835, 18.7540], [73.7860, 18.7570]]
      }
    },
    {
      "type": "Feature",
      "properties": {
        "segment_index": 2,
        "name": "Spine Road Central (Weighbridge to Junction A)",
        "traffic_class": "CRITICAL_HEAVY",
        "traffic_class_weight": 2.2,
        "near_gate_or_weighbridge": true,
        "has_active_dlp": true,
        "length_m": 710.0
      },
      "geometry": {
        "type": "LineString",
        "coordinates": [[73.7860, 18.7570], [73.7890, 18.7605], [73.7920, 18.7640]]
      }
    },
    {
      "type": "Feature",
      "properties": {
        "segment_index": 3,
        "name": "Spine Road South (Junction A to Gate 2)",
        "traffic_class": "CRITICAL_HEAVY",
        "traffic_class_weight": 2.0,
        "near_gate_or_weighbridge": true,
        "has_active_dlp": false,
        "length_m": 680.0
      },
      "geometry": {
        "type": "LineString",
        "coordinates": [[73.7920, 18.7640], [73.7950, 18.7675], [73.7980, 18.7710]]
      }
    },
    {
      "type": "Feature",
      "properties": {
        "segment_index": 4,
        "name": "Heavy Vehicle Corridor 1",
        "traffic_class": "HEAVY",
        "traffic_class_weight": 1.8,
        "near_gate_or_weighbridge": false,
        "has_active_dlp": true,
        "length_m": 540.0
      },
      "geometry": {
        "type": "LineString",
        "coordinates": [[73.7860, 18.7570], [73.7885, 18.7555], [73.7915, 18.7540]]
      }
    },
    {
      "type": "Feature",
      "properties": {
        "segment_index": 5,
        "name": "Heavy Vehicle Corridor 2",
        "traffic_class": "HEAVY",
        "traffic_class_weight": 1.8,
        "near_gate_or_weighbridge": false,
        "has_active_dlp": false,
        "length_m": 580.0
      },
      "geometry": {
        "type": "LineString",
        "coordinates": [[73.7915, 18.7540], [73.7945, 18.7525], [73.7975, 18.7510]]
      }
    },
    {
      "type": "Feature",
      "properties": {
        "segment_index": 6,
        "name": "Steel Rolling Mill Access Road",
        "traffic_class": "HEAVY",
        "traffic_class_weight": 2.0,
        "near_gate_or_weighbridge": false,
        "has_active_dlp": true,
        "length_m": 430.0
      },
      "geometry": {
        "type": "LineString",
        "coordinates": [[73.7835, 18.7540], [73.7860, 18.7520], [73.7885, 18.7500]]
      }
    },
    {
      "type": "Feature",
      "properties": {
        "segment_index": 7,
        "name": "Auto Cluster Link Road",
        "traffic_class": "HEAVY",
        "traffic_class_weight": 1.7,
        "near_gate_or_weighbridge": false,
        "has_active_dlp": true,
        "length_m": 510.0
      },
      "geometry": {
        "type": "LineString",
        "coordinates": [[73.7890, 18.7605], [73.7925, 18.7590], [73.7960, 18.7575]]
      }
    },
    {
      "type": "Feature",
      "properties": {
        "segment_index": 8,
        "name": "Logistics Park Boulevard",
        "traffic_class": "HEAVY",
        "traffic_class_weight": 1.9,
        "near_gate_or_weighbridge": true,
        "has_active_dlp": true,
        "length_m": 650.0
      },
      "geometry": {
        "type": "LineString",
        "coordinates": [[73.7920, 18.7640], [73.7960, 18.7625], [73.8000, 18.7610]]
      }
    },
    {
      "type": "Feature",
      "properties": {
        "segment_index": 9,
        "name": "Internal Loop Road North",
        "traffic_class": "MEDIUM",
        "traffic_class_weight": 1.2,
        "near_gate_or_weighbridge": false,
        "has_active_dlp": false,
        "length_m": 480.0
      },
      "geometry": {
        "type": "LineString",
        "coordinates": [[73.7880, 18.7650], [73.7910, 18.7680], [73.7940, 18.7710]]
      }
    },
    {
      "type": "Feature",
      "properties": {
        "segment_index": 10,
        "name": "Internal Loop Road East",
        "traffic_class": "MEDIUM",
        "traffic_class_weight": 1.2,
        "near_gate_or_weighbridge": false,
        "has_active_dlp": false,
        "length_m": 520.0
      },
      "geometry": {
        "type": "LineString",
        "coordinates": [[73.7940, 18.7710], [73.7970, 18.7680], [73.8000, 18.7650]]
      }
    },
    {
      "type": "Feature",
      "properties": {
        "segment_index": 11,
        "name": "Internal Loop Road South",
        "traffic_class": "MEDIUM",
        "traffic_class_weight": 1.1,
        "near_gate_or_weighbridge": false,
        "has_active_dlp": true,
        "length_m": 460.0
      },
      "geometry": {
        "type": "LineString",
        "coordinates": [[73.8000, 18.7650], [73.7970, 18.7620], [73.7940, 18.7590]]
      }
    },
    {
      "type": "Feature",
      "properties": {
        "segment_index": 12,
        "name": "Internal Loop Road West",
        "traffic_class": "MEDIUM",
        "traffic_class_weight": 1.1,
        "near_gate_or_weighbridge": false,
        "has_active_dlp": false,
        "length_m": 490.0
      },
      "geometry": {
        "type": "LineString",
        "coordinates": [[73.7940, 18.7590], [73.7910, 18.7620], [73.7880, 18.7650]]
      }
    },
    {
      "type": "Feature",
      "properties": {
        "segment_index": 13,
        "name": "Sub-Station Feeder Road",
        "traffic_class": "LIGHT",
        "traffic_class_weight": 0.8,
        "near_gate_or_weighbridge": false,
        "has_active_dlp": false,
        "length_m": 350.0
      },
      "geometry": {
        "type": "LineString",
        "coordinates": [[73.7810, 18.7510], [73.7780, 18.7525], [73.7750, 18.7540]]
      }
    },
    {
      "type": "Feature",
      "properties": {
        "segment_index": 14,
        "name": "Foundry Road Segment 1",
        "traffic_class": "HEAVY",
        "traffic_class_weight": 2.1,
        "near_gate_or_weighbridge": false,
        "has_active_dlp": true,
        "length_m": 420.0
      },
      "geometry": {
        "type": "LineString",
        "coordinates": [[73.7750, 18.7540], [73.7770, 18.7570], [73.7790, 18.7600]]
      }
    },
    {
      "type": "Feature",
      "properties": {
        "segment_index": 15,
        "name": "Foundry Road Segment 2",
        "traffic_class": "HEAVY",
        "traffic_class_weight": 2.0,
        "near_gate_or_weighbridge": false,
        "has_active_dlp": false,
        "length_m": 390.0
      },
      "geometry": {
        "type": "LineString",
        "coordinates": [[73.7790, 18.7600], [73.7815, 18.7630], [73.7840, 18.7660]]
      }
    },
    {
      "type": "Feature",
      "properties": {
        "segment_index": 16,
        "name": "Container Terminal Road",
        "traffic_class": "CRITICAL_HEAVY",
        "traffic_class_weight": 2.4,
        "near_gate_or_weighbridge": true,
        "has_active_dlp": true,
        "length_m": 580.0
      },
      "geometry": {
        "type": "LineString",
        "coordinates": [[73.7980, 18.7710], [73.8015, 18.7725], [73.8050, 18.7740]]
      }
    },
    {
      "type": "Feature",
      "properties": {
        "segment_index": 17,
        "name": "Engineering Block Ring Road",
        "traffic_class": "MEDIUM",
        "traffic_class_weight": 1.3,
        "near_gate_or_weighbridge": false,
        "has_active_dlp": true,
        "length_m": 450.0
      },
      "geometry": {
        "type": "LineString",
        "coordinates": [[73.8050, 18.7740], [73.8075, 18.7710], [73.8100, 18.7680]]
      }
    },
    {
      "type": "Feature",
      "properties": {
        "segment_index": 18,
        "name": "Vendor Park Road 1",
        "traffic_class": "MEDIUM",
        "traffic_class_weight": 1.0,
        "near_gate_or_weighbridge": false,
        "has_active_dlp": false,
        "length_m": 380.0
      },
      "geometry": {
        "type": "LineString",
        "coordinates": [[73.8100, 18.7680], [73.8070, 18.7650], [73.8040, 18.7620]]
      }
    },
    {
      "type": "Feature",
      "properties": {
        "segment_index": 19,
        "name": "Vendor Park Road 2",
        "traffic_class": "MEDIUM",
        "traffic_class_weight": 1.0,
        "near_gate_or_weighbridge": false,
        "has_active_dlp": true,
        "length_m": 360.0
      },
      "geometry": {
        "type": "LineString",
        "coordinates": [[73.8040, 18.7620], [73.8010, 18.7590], [73.7980, 18.7560]]
      }
    },
    {
      "type": "Feature",
      "properties": {
        "segment_index": 20,
        "name": "CETP Link Avenue",
        "traffic_class": "HEAVY",
        "traffic_class_weight": 1.6,
        "near_gate_or_weighbridge": false,
        "has_active_dlp": true,
        "length_m": 470.0
      },
      "geometry": {
        "type": "LineString",
        "coordinates": [[73.7980, 18.7560], [73.8010, 18.7535], [73.8040, 18.7510]]
      }
    },
    {
      "type": "Feature",
      "properties": {
        "segment_index": 21,
        "name": "Fire Station Access Avenue",
        "traffic_class": "LIGHT",
        "traffic_class_weight": 1.0,
        "near_gate_or_weighbridge": false,
        "has_active_dlp": false,
        "length_m": 310.0
      },
      "geometry": {
        "type": "LineString",
        "coordinates": [[73.7890, 18.7605], [73.7870, 18.7635], [73.7850, 18.7665]]
      }
    },
    {
      "type": "Feature",
      "properties": {
        "segment_index": 22,
        "name": "Phase II Expressway Connector",
        "traffic_class": "CRITICAL_HEAVY",
        "traffic_class_weight": 2.5,
        "near_gate_or_weighbridge": true,
        "has_active_dlp": true,
        "length_m": 750.0
      },
      "geometry": {
        "type": "LineString",
        "coordinates": [[73.7810, 18.7510], [73.7840, 18.7480], [73.7870, 18.7450]]
      }
    },
    {
      "type": "Feature",
      "properties": {
        "segment_index": 23,
        "name": "Scrap Yard Feeder Lane",
        "traffic_class": "HEAVY",
        "traffic_class_weight": 1.9,
        "near_gate_or_weighbridge": true,
        "has_active_dlp": false,
        "length_m": 410.0
      },
      "geometry": {
        "type": "LineString",
        "coordinates": [[73.7870, 18.7450], [73.7905, 18.7465], [73.7940, 18.7480]]
      }
    },
    {
      "type": "Feature",
      "properties": {
        "segment_index": 24,
        "name": "Heavy Stamping Sector Road",
        "traffic_class": "HEAVY",
        "traffic_class_weight": 1.8,
        "near_gate_or_weighbridge": false,
        "has_active_dlp": true,
        "length_m": 530.0
      },
      "geometry": {
        "type": "LineString",
        "coordinates": [[73.7940, 18.7480], [73.7975, 18.7495], [73.8010, 18.7510]]
      }
    },
    {
      "type": "Feature",
      "properties": {
        "segment_index": 25,
        "name": "Quality Inspection Hub Crescent",
        "traffic_class": "MEDIUM",
        "traffic_class_weight": 1.1,
        "near_gate_or_weighbridge": false,
        "has_active_dlp": false,
        "length_m": 370.0
      },
      "geometry": {
        "type": "LineString",
        "coordinates": [[73.7860, 18.7570], [73.7830, 18.7585], [73.7800, 18.7600]]
      }
    },
    {
      "type": "Feature",
      "properties": {
        "segment_index": 26,
        "name": "Rail Siding Approach Road",
        "traffic_class": "HEAVY",
        "traffic_class_weight": 2.2,
        "near_gate_or_weighbridge": true,
        "has_active_dlp": true,
        "length_m": 600.0
      },
      "geometry": {
        "type": "LineString",
        "coordinates": [[73.8050, 18.7740], [73.8085, 18.7760], [73.8120, 18.7780]]
      }
    },
    {
      "type": "Feature",
      "properties": {
        "segment_index": 27,
        "name": "North Gate Commercial Way",
        "traffic_class": "MEDIUM",
        "traffic_class_weight": 1.4,
        "near_gate_or_weighbridge": true,
        "has_active_dlp": false,
        "length_m": 490.0
      },
      "geometry": {
        "type": "LineString",
        "coordinates": [[73.8120, 18.7780], [73.8140, 18.7750], [73.8160, 18.7720]]
      }
    },
    {
      "type": "Feature",
      "properties": {
        "segment_index": 28,
        "name": "South Gate Freight Way",
        "traffic_class": "HEAVY",
        "traffic_class_weight": 2.0,
        "near_gate_or_weighbridge": true,
        "has_active_dlp": true,
        "length_m": 560.0
      },
      "geometry": {
        "type": "LineString",
        "coordinates": [[73.8160, 18.7720], [73.8130, 18.7690], [73.8100, 18.7660]]
      }
    },
    {
      "type": "Feature",
      "properties": {
        "segment_index": 29,
        "name": "Utility Corridor Spine",
        "traffic_class": "LIGHT",
        "traffic_class_weight": 0.7,
        "near_gate_or_weighbridge": false,
        "has_active_dlp": false,
        "length_m": 440.0
      },
      "geometry": {
        "type": "LineString",
        "coordinates": [[73.8100, 18.7660], [73.8050, 18.7640], [73.8000, 18.7620]]
      }
    },
    {
      "type": "Feature",
      "properties": {
        "segment_index": 30,
        "name": "Pilot Demonstration Loop",
        "traffic_class": "MEDIUM",
        "traffic_class_weight": 1.5,
        "near_gate_or_weighbridge": true,
        "has_active_dlp": true,
        "length_m": 500.0
      },
      "geometry": {
        "type": "LineString",
        "coordinates": [[73.7860, 18.7570], [73.7890, 18.7580], [73.7920, 18.7570], [73.7890, 18.7555], [73.7860, 18.7570]]
      }
    }
  ]
}
